STARLINK-35259          
1 66198U 25243W   25322.16670139 -.01959940  00000+0 -29337-1 0  9996
2 66198  53.1602  44.3160 0000779  82.2251 300.8711 15.57875801  4630
STARLINK-35509          
1 66199U 25243Y   25322.16670139 -.01957466  00000+0 -29298-1 0  9994
2 66199  53.1604  44.3123 0000804  83.7076 301.3088 15.57872643  4636
STARLINK-35551          
1 66200U 25243Z   25322.16670139 -.01970997  00000+0 -29520-1 0  9999
2 66200  53.1603  44.3199 0000795  86.7288 294.4511 15.57880731  4638
STARLINK-35543          
1 66201U 25243AA  25322.16670139 -.01973696  00000+0 -29564-1 0  9997
2 66201  53.1603  44.3234 0000822  83.5045 295.7568 15.57882705  4691
STARLINK-35534          
1 66202U 25243AB  25322.16670139 -.01958526  00000+0 -29315-1 0  9997
2 66202  53.1602  44.3280 0000846  89.6229 287.7264 15.57873248  4639
STARLINK-35548          
1 66203U 25243AC  25322.16670139 -.01963431  00000+0 -29397-1 0  9999
2 66203  53.1604  44.3323 0000832  88.5677 286.8643 15.57875508  4698
STARLINK-35490          
1 66204U 25243AD  25322.16670139 -.01976334  00000+0 -29610-1 0  9994
2 66204  53.1603  44.3396 0000925  83.4086 288.1887 15.57881038  4587
STARLINK-35748          
1 66206U 25244A   25322.16670139 -.02047973  00000+0 -44690-1 0  9991
2 66206  53.1605  32.0080 0001141  77.7949  55.5393 15.47099670  4300
STARLINK-35747          
1 66207U 25244B   25322.13525213  .00237811  00000+0  15813-2 0  9995
2 66207  53.1601  31.3444 0000620  80.3530 279.7560 15.74207553  4532
STARLINK-35751          
1 66208U 25244C   25322.16670139 -.02049225  00000+0 -45120-1 0  9994
2 66208  53.1605  32.0003 0001189  75.6873  60.9930 15.46844636  4421
STARLINK-35750          
1 66209U 25244D   25322.16670139 -.01992479  00000+0 -39606-1 0  9994
2 66209  53.1604  31.9869 0001412  98.0313  44.8684 15.49646231  4393
STARLINK-35740          
1 66210U 25244E   25322.16670139 -.01987842  00000+0 -39490-1 0  9995
2 66210  53.1606  31.9916 0001355  94.8699  46.1075 15.49656029  4257
