CCSDS_OMM_VERS = 2.0
CREATION_DATE  = 
ORIGINATOR     = 

OBJECT_NAME    = STARLINK-35259
OBJECT_ID      = 2025-243W
CENTER_NAME    = EARTH
REF_FRAME      = TEME
TIME_SYSTEM    = UTC
MEAN_ELEMENT_THEORY = SGP/SGP4

EPOCH          = 2025-11-18T04:00:03.000096
MEAN_MOTION    = 15.57875801
ECCENTRICITY   = .0000779
INCLINATION    = 53.1602
RA_OF_ASC_NODE = 44.3160
ARG_OF_PERICENTER = 82.2251
MEAN_ANOMALY   = 300.8711

EPHEMERIS_TYPE = 0
CLASSIFICATION_TYPE = U
NORAD_CAT_ID   = 66198
ELEMENT_SET_NO = 999
REV_AT_EPOCH   = 463
BSTAR          = -.29337E-1
MEAN_MOTION_DOT = -.195994E-1
MEAN_MOTION_DDOT = 0

CCSDS_OMM_VERS = 2.0
CREATION_DATE  = 
ORIGINATOR     = 

OBJECT_NAME    = STARLINK-35509
OBJECT_ID      = 2025-243Y
CENTER_NAME    = EARTH
REF_FRAME      = TEME
TIME_SYSTEM    = UTC
MEAN_ELEMENT_THEORY = SGP/SGP4

EPOCH          = 2025-11-18T04:00:03.000096
MEAN_MOTION    = 15.57872643
ECCENTRICITY   = .0000804
INCLINATION    = 53.1604
RA_OF_ASC_NODE = 44.3123
ARG_OF_PERICENTER = 83.7076
MEAN_ANOMALY   = 301.3088

EPHEMERIS_TYPE = 0
CLASSIFICATION_TYPE = U
NORAD_CAT_ID   = 66199
ELEMENT_SET_NO = 999
REV_AT_EPOCH   = 463
BSTAR          = -.29298E-1
MEAN_MOTION_DOT = -.1957466E-1
MEAN_MOTION_DDOT = 0

CCSDS_OMM_VERS = 2.0
CREATION_DATE  = 
ORIGINATOR     = 

OBJECT_NAME    = STARLINK-35551
OBJECT_ID      = 2025-243Z
CENTER_NAME    = EARTH
REF_FRAME      = TEME
TIME_SYSTEM    = UTC
MEAN_ELEMENT_THEORY = SGP/SGP4

EPOCH          = 2025-11-18T04:00:03.000096
MEAN_MOTION    = 15.57880731
ECCENTRICITY   = .0000795
INCLINATION    = 53.1603
RA_OF_ASC_NODE = 44.3199
ARG_OF_PERICENTER = 86.7288
MEAN_ANOMALY   = 294.4511

EPHEMERIS_TYPE = 0
CLASSIFICATION_TYPE = U
NORAD_CAT_ID   = 66200
ELEMENT_SET_NO = 999
REV_AT_EPOCH   = 463
BSTAR          = -.2952E-1
MEAN_MOTION_DOT = -.1970997E-1
MEAN_MOTION_DDOT = 0

CCSDS_OMM_VERS = 2.0
CREATION_DATE  = 
ORIGINATOR     = 

OBJECT_NAME    = STARLINK-35543
OBJECT_ID      = 2025-243AA
CENTER_NAME    = EARTH
REF_FRAME      = TEME
TIME_SYSTEM    = UTC
MEAN_ELEMENT_THEORY = SGP/SGP4

EPOCH          = 2025-11-18T04:00:03.000096
MEAN_MOTION    = 15.57882705
ECCENTRICITY   = .0000822
INCLINATION    = 53.1603
RA_OF_ASC_NODE = 44.3234
ARG_OF_PERICENTER = 83.5045
MEAN_ANOMALY   = 295.7568

EPHEMERIS_TYPE = 0
CLASSIFICATION_TYPE = U
NORAD_CAT_ID   = 66201
ELEMENT_SET_NO = 999
REV_AT_EPOCH   = 469
BSTAR          = -.29564E-1
MEAN_MOTION_DOT = -.1973696E-1
MEAN_MOTION_DDOT = 0

CCSDS_OMM_VERS = 2.0
CREATION_DATE  = 
ORIGINATOR     = 

OBJECT_NAME    = STARLINK-35534
OBJECT_ID      = 2025-243AB
CENTER_NAME    = EARTH
REF_FRAME      = TEME
TIME_SYSTEM    = UTC
MEAN_ELEMENT_THEORY = SGP/SGP4

EPOCH          = 2025-11-18T04:00:03.000096
MEAN_MOTION    = 15.57873248
ECCENTRICITY   = .0000846
INCLINATION    = 53.1602
RA_OF_ASC_NODE = 44.3280
ARG_OF_PERICENTER = 89.6229
MEAN_ANOMALY   = 287.7264

EPHEMERIS_TYPE = 0
CLASSIFICATION_TYPE = U
NORAD_CAT_ID   = 66202
ELEMENT_SET_NO = 999
REV_AT_EPOCH   = 463
BSTAR          = -.29315E-1
MEAN_MOTION_DOT = -.1958526E-1
MEAN_MOTION_DDOT = 0

CCSDS_OMM_VERS = 2.0
CREATION_DATE  = 
ORIGINATOR     = 

OBJECT_NAME    = STARLINK-35548
OBJECT_ID      = 2025-243AC
CENTER_NAME    = EARTH
REF_FRAME      = TEME
TIME_SYSTEM    = UTC
MEAN_ELEMENT_THEORY = SGP/SGP4

EPOCH          = 2025-11-18T04:00:03.000096
MEAN_MOTION    = 15.57875508
ECCENTRICITY   = .0000832
INCLINATION    = 53.1604
RA_OF_ASC_NODE = 44.3323
ARG_OF_PERICENTER = 88.5677
MEAN_ANOMALY   = 286.8643

EPHEMERIS_TYPE = 0
CLASSIFICATION_TYPE = U
NORAD_CAT_ID   = 66203
ELEMENT_SET_NO = 999
REV_AT_EPOCH   = 469
BSTAR          = -.29397E-1
MEAN_MOTION_DOT = -.1963431E-1
MEAN_MOTION_DDOT = 0

CCSDS_OMM_VERS = 2.0
CREATION_DATE  = 
ORIGINATOR     = 

OBJECT_NAME    = STARLINK-35490
OBJECT_ID      = 2025-243AD
CENTER_NAME    = EARTH
REF_FRAME      = TEME
TIME_SYSTEM    = UTC
MEAN_ELEMENT_THEORY = SGP/SGP4

EPOCH          = 2025-11-18T04:00:03.000096
MEAN_MOTION    = 15.57881038
ECCENTRICITY   = .0000925
INCLINATION    = 53.1603
RA_OF_ASC_NODE = 44.3396
ARG_OF_PERICENTER = 83.4086
MEAN_ANOMALY   = 288.1887

EPHEMERIS_TYPE = 0
CLASSIFICATION_TYPE = U
NORAD_CAT_ID   = 66204
ELEMENT_SET_NO = 999
REV_AT_EPOCH   = 458
BSTAR          = -.2961E-1
MEAN_MOTION_DOT = -.1976334E-1
MEAN_MOTION_DDOT = 0

CCSDS_OMM_VERS = 2.0
CREATION_DATE  = 
ORIGINATOR     = 

OBJECT_NAME    = STARLINK-35748
OBJECT_ID      = 2025-244A
CENTER_NAME    = EARTH
REF_FRAME      = TEME
TIME_SYSTEM    = UTC
MEAN_ELEMENT_THEORY = SGP/SGP4

EPOCH          = 2025-11-18T04:00:03.000096
MEAN_MOTION    = 15.47099670
ECCENTRICITY   = .0001141
INCLINATION    = 53.1605
RA_OF_ASC_NODE = 32.0080
ARG_OF_PERICENTER = 77.7949
MEAN_ANOMALY   = 55.5393

EPHEMERIS_TYPE = 0
CLASSIFICATION_TYPE = U
NORAD_CAT_ID   = 66206
ELEMENT_SET_NO = 999
REV_AT_EPOCH   = 430
BSTAR          = -.4469E-1
MEAN_MOTION_DOT = -.2047973E-1
MEAN_MOTION_DDOT = 0

CCSDS_OMM_VERS = 2.0
CREATION_DATE  = 
ORIGINATOR     = 

OBJECT_NAME    = STARLINK-35747
OBJECT_ID      = 2025-244B
CENTER_NAME    = EARTH
REF_FRAME      = TEME
TIME_SYSTEM    = UTC
MEAN_ELEMENT_THEORY = SGP/SGP4

EPOCH          = 2025-11-18T03:14:45.784032
MEAN_MOTION    = 15.74207553
ECCENTRICITY   = .000062
INCLINATION    = 53.1601
RA_OF_ASC_NODE = 31.3444
ARG_OF_PERICENTER = 80.3530
MEAN_ANOMALY   = 279.7560

EPHEMERIS_TYPE = 0
CLASSIFICATION_TYPE = U
NORAD_CAT_ID   = 66207
ELEMENT_SET_NO = 999
REV_AT_EPOCH   = 453
BSTAR          = .15813E-2
MEAN_MOTION_DOT = .237811E-2
MEAN_MOTION_DDOT = 0

CCSDS_OMM_VERS = 2.0
CREATION_DATE  = 
ORIGINATOR     = 

OBJECT_NAME    = STARLINK-35751
OBJECT_ID      = 2025-244C
CENTER_NAME    = EARTH
REF_FRAME      = TEME
TIME_SYSTEM    = UTC
MEAN_ELEMENT_THEORY = SGP/SGP4

EPOCH          = 2025-11-18T04:00:03.000096
MEAN_MOTION    = 15.46844636
ECCENTRICITY   = .0001189
INCLINATION    = 53.1605
RA_OF_ASC_NODE = 32.0003
ARG_OF_PERICENTER = 75.6873
MEAN_ANOMALY   = 60.9930

EPHEMERIS_TYPE = 0
CLASSIFICATION_TYPE = U
NORAD_CAT_ID   = 66208
ELEMENT_SET_NO = 999
REV_AT_EPOCH   = 442
BSTAR          = -.4512E-1
MEAN_MOTION_DOT = -.2049225E-1
MEAN_MOTION_DDOT = 0

CCSDS_OMM_VERS = 2.0
CREATION_DATE  = 
ORIGINATOR     = 

OBJECT_NAME    = STARLINK-35750
OBJECT_ID      = 2025-244D
CENTER_NAME    = EARTH
REF_FRAME      = TEME
TIME_SYSTEM    = UTC
MEAN_ELEMENT_THEORY = SGP/SGP4

EPOCH          = 2025-11-18T04:00:03.000096
MEAN_MOTION    = 15.49646231
ECCENTRICITY   = .0001412
INCLINATION    = 53.1604
RA_OF_ASC_NODE = 31.9869
ARG_OF_PERICENTER = 98.0313
MEAN_ANOMALY   = 44.8684

EPHEMERIS_TYPE = 0
CLASSIFICATION_TYPE = U
NORAD_CAT_ID   = 66209
ELEMENT_SET_NO = 999
REV_AT_EPOCH   = 439
BSTAR          = -.39606E-1
MEAN_MOTION_DOT = -.1992479E-1
MEAN_MOTION_DDOT = 0

CCSDS_OMM_VERS = 2.0
CREATION_DATE  = 
ORIGINATOR     = 

OBJECT_NAME    = STARLINK-35740
OBJECT_ID      = 2025-244E
CENTER_NAME    = EARTH
REF_FRAME      = TEME
TIME_SYSTEM    = UTC
MEAN_ELEMENT_THEORY = SGP/SGP4

EPOCH          = 2025-11-18T04:00:03.000096
MEAN_MOTION    = 15.49656029
ECCENTRICITY   = .0001355
INCLINATION    = 53.1606
RA_OF_ASC_NODE = 31.9916
ARG_OF_PERICENTER = 94.8699
MEAN_ANOMALY   = 46.1075

EPHEMERIS_TYPE = 0
CLASSIFICATION_TYPE = U
NORAD_CAT_ID   = 66210
ELEMENT_SET_NO = 999
REV_AT_EPOCH   = 425
BSTAR          = -.3949E-1
MEAN_MOTION_DOT = -.1987842E-1
MEAN_MOTION_DDOT = 0

